<?xml version='1.0' encoding='UTF-8'?>
<gpx xmlns="http://www.topografix.com/GPX/1/1" xmlns:xsi="http://www.w3.org/2001/XMLSchema-instance" xsi:schemaLocation="http://www.topografix.com/GPX/1/1 http://www.topografix.com/GPX/1/1/gpx.xsd" creator="StravaGPX" version="1.1">
 <metadata>
  <time>2025-12-09T23:27:07Z</time>
 </metadata>
 <trk>
  <name>Bici 20:20</name>
  <type>cycling</type>
  <trkseg>
   <trkpt lat="-33.4564920" lon="-70.6052540">
    <ele>582.9</ele>
    <time>2025-12-09T23:27:37Z</time>
   </trkpt>
   <trkpt lat="-33.4564790" lon="-70.6052400">
    <ele>582.9</ele>
    <time>2025-12-09T23:27:38Z</time>
   </trkpt>
   <trkpt lat="-33.4564440" lon="-70.6052240">
    <ele>583.0</ele>
    <time>2025-12-09T23:27:39Z</time>
   </trkpt>
   <trkpt lat="-33.4564290" lon="-70.6052210">
    <ele>583.0</ele>
    <time>2025-12-09T23:27:40Z</time>
   </trkpt>
   <trkpt lat="-33.4563890" lon="-70.6052120">
    <ele>583.1</ele>
    <time>2025-12-09T23:27:41Z</time>
   </trkpt>
   <trkpt lat="-33.4563750" lon="-70.6052070">
    <ele>583.1</ele>
    <time>2025-12-09T23:27:42Z</time>
   </trkpt>
   <trkpt lat="-33.4563380" lon="-70.6051900">
    <ele>583.2</ele>
    <time>2025-12-09T23:27:43Z</time>
   </trkpt>
   <trkpt lat="-33.4563250" lon="-70.6051860">
    <ele>583.2</ele>
    <time>2025-12-09T23:27:44Z</time>
   </trkpt>
   <trkpt lat="-33.4562940" lon="-70.6051790">
    <ele>583.3</ele>
    <time>2025-12-09T23:27:45Z</time>
   </trkpt>
   <trkpt lat="-33.4562670" lon="-70.6051660">
    <ele>583.3</ele>
    <time>2025-12-09T23:27:46Z</time>
   </trkpt>
   <trkpt lat="-33.4562380" lon="-70.6051710">
    <ele>583.4</ele>
    <time>2025-12-09T23:27:47Z</time>
   </trkpt>
   <trkpt lat="-33.4562030" lon="-70.6051600">
    <ele>583.5</ele>
    <time>2025-12-09T23:27:48Z</time>
   </trkpt>
   <trkpt lat="-33.4561910" lon="-70.6051580">
    <ele>583.5</ele>
    <time>2025-12-09T23:27:49Z</time>
   </trkpt>
   <trkpt lat="-33.4561630" lon="-70.6051530">
    <ele>583.5</ele>
    <time>2025-12-09T23:27:50Z</time>
   </trkpt>
   <trkpt lat="-33.4561340" lon="-70.6051490">
    <ele>583.6</ele>
    <time>2025-12-09T23:27:51Z</time>
   </trkpt>
   <trkpt lat="-33.4561070" lon="-70.6051390">
    <ele>583.6</ele>
    <time>2025-12-09T23:27:52Z</time>
   </trkpt>
   <trkpt lat="-33.4560760" lon="-70.6051280">
    <ele>583.7</ele>
    <time>2025-12-09T23:27:53Z</time>
   </trkpt>
   <trkpt lat="-33.4560320" lon="-70.6051220">
    <ele>583.8</ele>
    <time>2025-12-09T23:27:54Z</time>
   </trkpt>
   <trkpt lat="-33.4560140" lon="-70.6051200">
    <ele>583.8</ele>
    <time>2025-12-09T23:27:55Z</time>
   </trkpt>
   <trkpt lat="-33.4559780" lon="-70.6051130">
    <ele>583.9</ele>
    <time>2025-12-09T23:27:56Z</time>
   </trkpt>
   <trkpt lat="-33.4559660" lon="-70.6051100">
    <ele>583.9</ele>
    <time>2025-12-09T23:27:57Z</time>
   </trkpt>
   <trkpt lat="-33.4559500" lon="-70.6051040">
    <ele>583.9</ele>
    <time>2025-12-09T23:27:58Z</time>
   </trkpt>
   <trkpt lat="-33.4559310" lon="-70.6051070">
    <ele>584.0</ele>
    <time>2025-12-09T23:27:59Z</time>
   </trkpt>
   <trkpt lat="-33.4558950" lon="-70.6051050">
    <ele>584.0</ele>
    <time>2025-12-09T23:28:00Z</time>
   </trkpt>
   <trkpt lat="-33.4558830" lon="-70.6051060">
    <ele>584.0</ele>
    <time>2025-12-09T23:28:01Z</time>
   </trkpt>
   <trkpt lat="-33.4558520" lon="-70.6050970">
    <ele>584.1</ele>
    <time>2025-12-09T23:28:02Z</time>
   </trkpt>
   <trkpt lat="-33.4558420" lon="-70.6050940">
    <ele>584.1</ele>
    <time>2025-12-09T23:28:03Z</time>
   </trkpt>
   <trkpt lat="-33.4558140" lon="-70.6050870">
    <ele>584.1</ele>
    <time>2025-12-09T23:28:04Z</time>
   </trkpt>
   <trkpt lat="-33.4558050" lon="-70.6050840">
    <ele>584.1</ele>
    <time>2025-12-09T23:28:05Z</time>
   </trkpt>
   <trkpt lat="-33.4557890" lon="-70.6050840">
    <ele>584.2</ele>
    <time>2025-12-09T23:28:06Z</time>
   </trkpt>
   <trkpt lat="-33.4557710" lon="-70.6050760">
    <ele>584.2</ele>
    <time>2025-12-09T23:28:07Z</time>
   </trkpt>
   <trkpt lat="-33.4557580" lon="-70.6050800">
    <ele>584.2</ele>
    <time>2025-12-09T23:28:08Z</time>
   </trkpt>
   <trkpt lat="-33.4557510" lon="-70.6050680">
    <ele>584.2</ele>
    <time>2025-12-09T23:28:09Z</time>
   </trkpt>
   <trkpt lat="-33.4557410" lon="-70.6050570">
    <ele>584.2</ele>
    <time>2025-12-09T23:28:10Z</time>
   </trkpt>
   <trkpt lat="-33.4557300" lon="-70.6050520">
    <ele>584.2</ele>
    <time>2025-12-09T23:28:11Z</time>
   </trkpt>
   <trkpt lat="-33.4557140" lon="-70.6050440">
    <ele>584.2</ele>
    <time>2025-12-09T23:28:12Z</time>
   </trkpt>
   <trkpt lat="-33.4557080" lon="-70.6050270">
    <ele>584.2</ele>
    <time>2025-12-09T23:28:13Z</time>
   </trkpt>
   <trkpt lat="-33.4557140" lon="-70.6050100">
    <ele>584.2</ele>
    <time>2025-12-09T23:28:14Z</time>
   </trkpt>
   <trkpt lat="-33.4557190" lon="-70.6049780">
    <ele>584.2</ele>
    <time>2025-12-09T23:28:15Z</time>
   </trkpt>
   <trkpt lat="-33.4557200" lon="-70.6049670">
    <ele>584.2</ele>
    <time>2025-12-09T23:28:16Z</time>
   </trkpt>
   <trkpt lat="-33.4557250" lon="-70.6049480">
    <ele>584.2</ele>
    <time>2025-12-09T23:28:17Z</time>
   </trkpt>
   <trkpt lat="-33.4557280" lon="-70.6049330">
    <ele>584.2</ele>
    <time>2025-12-09T23:28:18Z</time>
   </trkpt>
   <trkpt lat="-33.4557240" lon="-70.6049080">
    <ele>584.2</ele>
    <time>2025-12-09T23:28:19Z</time>
   </trkpt>
   <trkpt lat="-33.4557270" lon="-70.6048910">
    <ele>584.2</ele>
    <time>2025-12-09T23:28:20Z</time>
   </trkpt>
   <trkpt lat="-33.4557270" lon="-70.6048440">
    <ele>584.2</ele>
    <time>2025-12-09T23:28:21Z</time>
   </trkpt>
   <trkpt lat="-33.4557310" lon="-70.6048260">
    <ele>584.2</ele>
    <time>2025-12-09T23:28:22Z</time>
   </trkpt>
   <trkpt lat="-33.4557380" lon="-70.6047840">
    <ele>584.2</ele>
    <time>2025-12-09T23:28:23Z</time>
   </trkpt>
   <trkpt lat="-33.4557420" lon="-70.6047660">
    <ele>584.2</ele>
    <time>2025-12-09T23:28:24Z</time>
   </trkpt>
   <trkpt lat="-33.4557500" lon="-70.6047270">
    <ele>584.2</ele>
    <time>2025-12-09T23:28:25Z</time>
   </trkpt>
   <trkpt lat="-33.4557610" lon="-70.6046960">
    <ele>584.2</ele>
    <time>2025-12-09T23:28:26Z</time>
   </trkpt>
   <trkpt lat="-33.4557690" lon="-70.6046590">
    <ele>584.2</ele>
    <time>2025-12-09T23:28:27Z</time>
   </trkpt>
   <trkpt lat="-33.4557770" lon="-70.6046120">
    <ele>584.2</ele>
    <time>2025-12-09T23:28:28Z</time>
   </trkpt>
   <trkpt lat="-33.4557810" lon="-70.6045690">
    <ele>584.2</ele>
    <time>2025-12-09T23:28:29Z</time>
   </trkpt>
   <trkpt lat="-33.4557760" lon="-70.6045190">
    <ele>584.3</ele>
    <time>2025-12-09T23:28:30Z</time>
   </trkpt>
   <trkpt lat="-33.4557780" lon="-70.6044840">
    <ele>584.3</ele>
    <time>2025-12-09T23:28:31Z</time>
   </trkpt>
   <trkpt lat="-33.4557800" lon="-70.6044460">
    <ele>584.3</ele>
    <time>2025-12-09T23:28:32Z</time>
   </trkpt>
   <trkpt lat="-33.4557770" lon="-70.6044030">
    <ele>584.3</ele>
    <time>2025-12-09T23:28:34Z</time>
   </trkpt>
   <trkpt lat="-33.4557740" lon="-70.6043520">
    <ele>584.4</ele>
    <time>2025-12-09T23:28:35Z</time>
   </trkpt>
   <trkpt lat="-33.4557670" lon="-70.6043110">
    <ele>584.4</ele>
    <time>2025-12-09T23:28:36Z</time>
   </trkpt>
   <trkpt lat="-33.4557730" lon="-70.6042730">
    <ele>584.4</ele>
    <time>2025-12-09T23:28:37Z</time>
   </trkpt>
   <trkpt lat="-33.4557860" lon="-70.6042350">
    <ele>584.4</ele>
    <time>2025-12-09T23:28:38Z</time>
   </trkpt>
   <trkpt lat="-33.4557940" lon="-70.6041920">
    <ele>584.4</ele>
    <time>2025-12-09T23:28:39Z</time>
   </trkpt>
   <trkpt lat="-33.4557970" lon="-70.6041760">
    <ele>584.4</ele>
    <time>2025-12-09T23:28:40Z</time>
   </trkpt>
   <trkpt lat="-33.4557990" lon="-70.6041360">
    <ele>584.5</ele>
    <time>2025-12-09T23:28:41Z</time>
   </trkpt>
   <trkpt lat="-33.4558050" lon="-70.6041010">
    <ele>584.5</ele>
    <time>2025-12-09T23:28:42Z</time>
   </trkpt>
   <trkpt lat="-33.4558060" lon="-70.6040620">
    <ele>584.5</ele>
    <time>2025-12-09T23:28:43Z</time>
   </trkpt>
   <trkpt lat="-33.4558130" lon="-70.6040310">
    <ele>584.5</ele>
    <time>2025-12-09T23:28:44Z</time>
   </trkpt>
   <trkpt lat="-33.4558190" lon="-70.6039780">
    <ele>584.6</ele>
    <time>2025-12-09T23:28:45Z</time>
   </trkpt>
   <trkpt lat="-33.4558170" lon="-70.6039560">
    <ele>584.6</ele>
    <time>2025-12-09T23:28:46Z</time>
   </trkpt>
   <trkpt lat="-33.4558280" lon="-70.6039130">
    <ele>584.6</ele>
    <time>2025-12-09T23:28:47Z</time>
   </trkpt>
   <trkpt lat="-33.4558300" lon="-70.6038600">
    <ele>584.6</ele>
    <time>2025-12-09T23:28:48Z</time>
   </trkpt>
   <trkpt lat="-33.4558320" lon="-70.6038200">
    <ele>584.7</ele>
    <time>2025-12-09T23:28:49Z</time>
   </trkpt>
   <trkpt lat="-33.4558320" lon="-70.6037850">
    <ele>584.7</ele>
    <time>2025-12-09T23:28:50Z</time>
   </trkpt>
   <trkpt lat="-33.4558250" lon="-70.6037470">
    <ele>584.7</ele>
    <time>2025-12-09T23:28:51Z</time>
   </trkpt>
   <trkpt lat="-33.4558390" lon="-70.6036980">
    <ele>584.8</ele>
    <time>2025-12-09T23:28:52Z</time>
   </trkpt>
   <trkpt lat="-33.4558460" lon="-70.6036770">
    <ele>584.8</ele>
    <time>2025-12-09T23:28:53Z</time>
   </trkpt>
   <trkpt lat="-33.4558580" lon="-70.6036410">
    <ele>584.8</ele>
    <time>2025-12-09T23:28:54Z</time>
   </trkpt>
   <trkpt lat="-33.4558670" lon="-70.6036010">
    <ele>584.9</ele>
    <time>2025-12-09T23:28:55Z</time>
   </trkpt>
   <trkpt lat="-33.4558720" lon="-70.6035600">
    <ele>584.9</ele>
    <time>2025-12-09T23:28:56Z</time>
   </trkpt>
   <trkpt lat="-33.4558730" lon="-70.6035450">
    <ele>584.9</ele>
    <time>2025-12-09T23:28:57Z</time>
   </trkpt>
   <trkpt lat="-33.4558820" lon="-70.6035110">
    <ele>585.0</ele>
    <time>2025-12-09T23:28:58Z</time>
   </trkpt>
   <trkpt lat="-33.4558780" lon="-70.6034670">
    <ele>585.0</ele>
    <time>2025-12-09T23:28:59Z</time>
   </trkpt>
   <trkpt lat="-33.4558850" lon="-70.6034250">
    <ele>585.1</ele>
    <time>2025-12-09T23:29:00Z</time>
   </trkpt>
   <trkpt lat="-33.4558850" lon="-70.6034080">
    <ele>585.1</ele>
    <time>2025-12-09T23:29:01Z</time>
   </trkpt>
   <trkpt lat="-33.4558980" lon="-70.6033690">
    <ele>585.1</ele>
    <time>2025-12-09T23:29:02Z</time>
   </trkpt>
   <trkpt lat="-33.4558980" lon="-70.6033270">
    <ele>585.2</ele>
    <time>2025-12-09T23:29:03Z</time>
   </trkpt>
   <trkpt lat="-33.4559040" lon="-70.6032940">
    <ele>585.2</ele>
    <time>2025-12-09T23:29:04Z</time>
   </trkpt>
   <trkpt lat="-33.4559130" lon="-70.6032600">
    <ele>585.2</ele>
    <time>2025-12-09T23:29:05Z</time>
   </trkpt>
   <trkpt lat="-33.4559200" lon="-70.6032250">
    <ele>585.3</ele>
    <time>2025-12-09T23:29:06Z</time>
   </trkpt>
   <trkpt lat="-33.4559180" lon="-70.6032120">
    <ele>585.3</ele>
    <time>2025-12-09T23:29:07Z</time>
   </trkpt>
   </trkseg>
 </trk>
</gpx>